{
  "norad_id": 68509,
  "name": "STARLINK-36292",
  "history": [
    {
      "epoch": "2026-04-07T05:59:14.496576Z",
      "apogee_km": 301.8581676146041,
      "perigee_km": 299.75430049587703,
      "latitude_deg": 9.085715881209764e-06,
      "longitude_deg": 80.93882546170929,
      "height_km": 300.89094319531733,
      "semi_major_axis_km": 6678.94323405524,
      "eccentricity": 0.0001575,
      "inclination_deg": 53.1611,
      "raan_deg": 6.2783,
      "arg_perigee_deg": 37.252,
      "mean_anomaly_deg": 322.8616,
      "mean_motion_rev_day": 15.90527321
    }
  ]
}