{"fetched_at":"2026-04-08T17:04:03Z","count":12288,"tles":[{"name":"STARLINK-36292","line1":"1 68509U 26068B   26097.24947334 -.00636035  00000+0 -21600-2 0  9995","line2":"2 68509  53.1611   6.2783 0001575  37.2520 322.8616 15.90527321  1183","category":"Starlink"}]}